     2.10           G: GLONASS NAV DATA                     RINEX VERSION / TYPE
teqc  2015Jun23                         20210720 01:25:49UTCPGM / RUN BY / DATE
Linux 2.4.21-27.ELsmp|Opteron|gcc -static|Linux x86_64|=+   COMMENT
  2021     6    26    2.887099981308D-08                    CORR TO SYSTEM TIME
                                                            END OF HEADER
10 21  6 27 21 45  0.0-7.230322808027D-05-0.000000000000D+00 7.743000000000D+04
   -1.428282714844D+03-3.091240882874D+00-0.000000000000D+00 0.000000000000D+00
    1.091397558594D+04-6.104879379272D-01-9.313225746155D-10-7.000000000000D+00
    2.300535107422D+04 1.037406921387D-01-2.793967723846D-09 0.000000000000D+00
22 21  6 27 21 45  0.0-1.198519021273D-04-9.094947017729D-13 7.863000000000D+04
    4.025086425781D+03-2.093129158020D+00 1.862645149231D-09 0.000000000000D+00
    1.065389404297D+04 2.324100494385D+00 4.656612873077D-09-3.000000000000D+00
   -2.283440625000D+04 7.245931625366D-01 0.000000000000D+00 0.000000000000D+00
 6 21  6 27 22 15  0.0 2.004550769925D-04 0.000000000000D+00 7.920000000000D+04
   -8.436826660156D+03-1.397101402283D+00 1.862645149231D-09 0.000000000000D+00
    7.680381347656D+03-2.791927337646D+00 1.862645149231D-09-4.000000000000D+00
   -2.281889794922D+04-4.251365661621D-01 1.862645149231D-09 0.000000000000D+00
 7 21  6 27 22 15  0.0-4.220101982355D-05-0.000000000000D+00 7.920000000000D+04
    2.221265625000D+03-7.527484893799D-01 2.793967723846D-09 0.000000000000D+00
    2.075954589844D+04-1.864243507385D+00 3.725290298462D-09 5.000000000000D+00
   -1.458443750000D+04-2.764276504517D+00-0.000000000000D+00 0.000000000000D+00
 8 21  6 27 22 15  0.0-5.968473851681D-05-0.000000000000D+00 7.920000000000D+04
    1.149681103516D+04 2.176265716553D-01 1.862645149231D-09 0.000000000000D+00
    2.272788720703D+04 7.825279235840D-02 3.725290298462D-09 6.000000000000D+00
    1.258967773438D+03-3.566908836365D+00-2.793967723846D-09 0.000000000000D+00
20 21  6 27 22 15  0.0-5.158316344023D-05-0.000000000000D+00 7.920000000000D+04
   -1.730282128906D+04 1.103058815002D+00 9.313225746155D-10 0.000000000000D+00
    1.490739843750D+04-1.116851806641D+00-9.313225746155D-10 2.000000000000D+00
    1.131732763672D+04 3.160992622375D+00-9.313225746155D-10 0.000000000000D+00
21 21  6 27 22 15  0.0-2.197269350290D-04-2.728484105319D-12 7.920000000000D+04
   -1.076713720703D+04-4.419794082642D-01 2.793967723846D-09 0.000000000000D+00
    2.171893310547D+04 1.025504112244D+00 1.862645149231D-09 4.000000000000D+00
   -7.991275390625D+03 3.383123397827D+00-9.313225746155D-10 0.000000000000D+00
22 21  6 27 22 15  0.0-1.198556274176D-04-1.818989403546D-12 7.920000000000D+04
    7.301132812500D+02-1.547250747681D+00 2.793967723846D-09 0.000000000000D+00
    1.492608642578D+04 2.374648094177D+00 3.725290298462D-09-3.000000000000D+00
   -2.066480712891D+04 1.670713424683D+00 0.000000000000D+00 0.000000000000D+00
 1 21  6 27 22 15  0.0 8.149817585945D-05 0.000000000000D+00 8.013000000000D+04
    1.515921484375D+04 1.033798217773D+00-0.000000000000D+00 0.000000000000D+00
    1.381147216797D+04 1.804908752441D+00 9.313225746155D-10 1.000000000000D+00
    1.518612402344D+04-2.672698020935D+00-3.725290298462D-09 0.000000000000D+00
 7 21  6 27 22 45  0.0-4.220195114613D-05-0.000000000000D+00 8.100000000000D+04
    3.401132812500D+02-1.342908859253D+00 3.725290298462D-09 0.000000000000D+00
    1.703095312500D+04-2.231667518616D+00 2.793967723846D-09 5.000000000000D+00
   -1.892897509766D+04-2.031466484070D+00 0.000000000000D+00 0.000000000000D+00
 1 21  6 27 22 45  0.0 8.150003850460D-05 0.000000000000D+00 8.100000000000D+04
    1.691021777344D+04 8.682851791382D-01 9.313225746155D-10 0.000000000000D+00
    1.637691601562D+04 1.038444519043D+00 2.793967723846D-09 1.000000000000D+00
    9.850944335938D+03-3.216835975647D+00-3.725290298462D-09 0.000000000000D+00
 8 21  6 27 22 45  0.0-5.968473851681D-05-0.000000000000D+00 8.100000000000D+04
    1.149339941406D+04-2.549171447754D-01 2.793967723846D-09 0.000000000000D+00
    2.216300244141D+04-6.822519302368D-01 3.725290298462D-09 6.000000000000D+00
   -5.127115234375D+03-3.482555389404D+00-1.862645149231D-09 0.000000000000D+00
20 21  6 27 22 45  0.0-5.158409476280D-05-0.000000000000D+00 8.100000000000D+04
   -1.513894677734D+04 1.254897117615D+00-0.000000000000D+00 0.000000000000D+00
    1.219018945312D+04-1.893568038940D+00-2.793967723846D-09 2.000000000000D+00
    1.649499462891D+04 2.554587364197D+00-9.313225746155D-10 0.000000000000D+00
21 21  6 27 22 45  0.0-2.197315916419D-04-2.728484105319D-12 8.100000000000D+04
   -1.104219238281D+04 1.066017150879D-01 2.793967723846D-09 0.000000000000D+00
    2.295062988281D+04 3.120355606079D-01 0.000000000000D+00 4.000000000000D+00
   -1.671799316406D+03 3.593005180359D+00-9.313225746155D-10 0.000000000000D+00
22 21  6 27 22 45  0.0-1.198593527079D-04-1.818989403546D-12 8.100000000000D+04
   -1.504203125000D+03-9.336080551147D-01 3.725290298462D-09 0.000000000000D+00
    1.902268017578D+04 2.126895904541D+00 2.793967723846D-09-3.000000000000D+00
   -1.689662255859D+04 2.489177703857D+00-0.000000000000D+00 0.000000000000D+00
10 21  6 27 22 45  0.0-7.230509072542D-05-0.000000000000D+00 8.193000000000D+04
   -1.222533837891D+04-2.707468986511D+00-0.000000000000D+00 0.000000000000D+00
    1.034545117188D+04 2.673816680908D-01-2.793967723846D-09-7.000000000000D+00
    1.987231298828D+04-1.798270225525D+00-9.313225746155D-10 0.000000000000D+00
 7 21  6 27 23 15  0.0-4.220288246870D-05-0.000000000000D+00 8.280000000000D+04
   -2.599392089844D+03-1.910029411316D+00 2.793967723846D-09 0.000000000000D+00
    1.289984570312D+04-2.310171127319D+00 1.862645149231D-09 5.000000000000D+00
   -2.180277587891D+04-1.140839576721D+00 9.313225746155D-10 0.000000000000D+00
 1 21  6 27 23 15  0.0 8.150096982718D-05 0.000000000000D+00 8.280000000000D+04
    1.813226806641D+04 4.496574401855D-01 1.862645149231D-09 0.000000000000D+00
    1.755852099609D+04 2.861785888672D-01 2.793967723846D-09 1.000000000000D+00
    3.754949707031D+03-3.512561798096D+00-3.725290298462D-09 0.000000000000D+00
 8 21  6 27 23 15  0.0-5.968660116196D-05-0.000000000000D+00 8.280000000000D+04
    1.048156689453D+04-8.889551162720D-01 3.725290298462D-09 0.000000000000D+00
    2.038410302734D+04-1.256651878357D+00 3.725290298462D-09 6.000000000000D+00
   -1.111562207031D+04-3.127902984619D+00-9.313225746155D-10 0.000000000000D+00
10 21  6 27 23 15  0.0-7.230509072542D-05-0.000000000000D+00 8.280000000000D+04
   -1.659418261719D+04-2.110177993774D+00-0.000000000000D+00 0.000000000000D+00
    1.110490966797D+04 5.460567474365D-01-2.793967723846D-09-7.000000000000D+00
    1.591052392578D+04-2.575082778931D+00-0.000000000000D+00 0.000000000000D+00
20 21  6 27 23 15  0.0-5.158595740795D-05-0.000000000000D+00 8.280000000000D+04
   -1.294639453125D+04 1.139616012573D+00-9.313225746155D-10 0.000000000000D+00
    8.157153320312D+03-2.559761047363D+00-2.793967723846D-09 2.000000000000D+00
    2.039506640625D+04 1.750730514526D+00-9.313225746155D-10 0.000000000000D+00
21 21  6 27 23 15  0.0-2.197362482548D-04-2.728484105319D-12 8.280000000000D+04
   -1.051177490234D+04 4.425163269043D-01 1.862645149231D-09 0.000000000000D+00
    2.276025878906D+04-5.372762680054D-01-9.313225746155D-10 4.000000000000D+00
    4.776707031250D+03 3.525544166565D+00-9.313225746155D-10 0.000000000000D+00
22 21  6 27 23 15  0.0-1.198630779982D-04-1.818989403546D-12 8.280000000000D+04
   -2.658947753906D+03-3.663530349731D-01 3.725290298462D-09 0.000000000000D+00
    2.240999121094D+04 1.592521667480D+00 1.862645149231D-09-3.000000000000D+00
   -1.181906542969D+04 3.115969657898D+00-0.000000000000D+00 0.000000000000D+00
 7 21  6 27 23 45  0.0-4.220381379128D-05-0.000000000000D+00 8.460000000000D+04
   -6.456543945312D+03-2.345350265503D+00 2.793967723846D-09 0.000000000000D+00
    8.879275390625D+03-2.115248680115D+00 0.000000000000D+00 5.000000000000D+00
   -2.298289794922D+04-1.619424819946D-01 1.862645149231D-09 0.000000000000D+00
 1 21  6 27 23 45  0.0 8.150190114975D-05 0.000000000000D+00 8.460000000000D+04
    1.840221679688D+04-1.789636611938D-01 3.725290298462D-09 0.000000000000D+00
    1.748014013672D+04-3.452548980713D-01 2.793967723846D-09 1.000000000000D+00
   -2.631079589844D+03-3.536994934082D+00-2.793967723846D-09 0.000000000000D+00
 8 21  6 27 23 45  0.0-5.968753248453D-05-0.000000000000D+00 8.460000000000D+04
    8.253915527344D+03-1.587866783142D+00 4.656612873077D-09 0.000000000000D+00
    1.779079101562D+04-1.579615592957D+00 2.793967723846D-09 6.000000000000D+00
   -1.624113085938D+04-2.529845237732D+00-0.000000000000D+00 0.000000000000D+00
10 21  6 27 23 45  0.0-7.230695337057D-05 0.000000000000D+00 8.460000000000D+04
   -1.971805029297D+04-1.340504646301D+00-9.313225746155D-10 0.000000000000D+00
    1.218263574219D+04 6.116571426392D-01-2.793967723846D-09-7.000000000000D+00
    1.072178808594D+04-3.152789115906D+00 0.000000000000D+00 0.000000000000D+00
21 21  6 27 23 45  0.0-2.197409048676D-04-2.728484105319D-12 8.460000000000D+04
   -9.602429687500D+03 5.245027542114D-01 9.313225746155D-10 0.000000000000D+00
    2.100254931641D+04-1.409519195557D+00-1.862645149231D-09 4.000000000000D+00
    1.085637158203D+04 3.185811042786D+00-9.313225746155D-10 0.000000000000D+00
22 21  6 27 23 45  0.0-1.198677346110D-04-1.818989403546D-12 8.460000000000D+04
   -2.912945312500D+03 5.210971832275D-02 3.725290298462D-09 0.000000000000D+00
    2.461785205078D+04 8.295831680298D-01 0.000000000000D+00-3.000000000000D+00
   -5.824184082031D+03 3.501637458801D+00-9.313225746155D-10 0.000000000000D+00
23 21  6 27 23 45  0.0-8.347444236279D-06-0.000000000000D+00 8.580000000000D+04
    7.541262695312D+03-5.735769271851D-01 3.725290298462D-09 0.000000000000D+00
    1.087139599609D+04 2.934864044189D+00 2.793967723846D-09 3.000000000000D+00
   -2.182271972656D+04 1.264660835266D+00 0.000000000000D+00 0.000000000000D+00
